STARLINK-31465          
1 59012U 24036Q   26068.26470372  .00000126  00000+0  16379-4 0  9993
2 59012  53.1596  80.4213 0001008  87.4556 272.6561 15.30190416115253
TEVEL2-1                
1 63217U 25052H   26068.64782323  .00020683  00000+0  70600-3 0  9994
2 63217  97.3991 324.7682 0004767 104.8919 255.2849 15.30341923 54855
